OBJECT_NAME,OBJECT_ID,EPOCH,MEAN_MOTION,ECCENTRICITY,INCLINATION,RA_OF_ASC_NODE,ARG_OF_PERICENTER,MEAN_ANOMALY,EPHEMERIS_TYPE,CLASSIFICATION_TYPE,NORAD_CAT_ID,ELEMENT_SET_NO,REV_AT_EPOCH,BSTAR,MEAN_MOTION_DOT,MEAN_MOTION_DDOT
LEMUR-1,2014-033AL,2026-06-28T22:46:16.199040,14.85288138,.00491026,97.7887,329.4931,40.9576,319.5311,0,U,40044,999,64721,.21367781E-3,.182E-4,0
LEMUR-2-GREENBERG,2017-042N,2026-06-28T18:46:50.888352,15.31675330,.00074927,97.3814,0.3563,329.4772,30.6032,0,U,42837,999,49016,.51377155E-3,.15664E-3,0
LEMUR-2-ANDIS,2017-042P,2026-06-28T18:50:16.973088,15.35299857,.00073684,97.3671,0.5830,326.6141,33.4637,0,U,42838,999,49023,.60348927E-3,.20655E-3,0
LEMUR-2-MONSON,2017-042Q,2026-06-28T18:01:33.001824,15.28335892,.000534,97.4076,0.2796,319.9828,40.1018,0,U,42839,999,48993,.52946096E-3,.14555E-3,0
LEMUR-2-FURIAUS,2017-042R,2026-06-28T10:58:49.651104,15.30612679,.00073674,97.3764,357.9623,32.5167,327.6527,0,U,42840,999,48993,.54695584E-3,.1614E-3,0
LEMUR-2-PETERG,2017-042S,2026-06-28T18:37:48.514080,15.34375539,.00026953,97.3984,4.8282,300.8951,59.2026,0,U,42841,999,49021,.68487382E-3,.22761E-3,0
LEMUR-2-DEMBITZ,2017-042T,2026-06-28T22:26:06.698400,15.30637055,.00057209,97.3820,1.4692,345.9516,14.1565,0,U,42842,999,49014,.49623312E-3,.14639E-3,0
LEMUR-2-ZACHARY,2017-042W,2026-06-28T19:19:16.789152,15.51269729,.00022957,97.3583,11.6960,335.3165,24.7977,0,U,42845,999,49100,.7609802E-3,.44696E-3,0
LEMUR-2-AMANDA-SVANTE,2021-034B,2026-06-28T23:08:00.747456,15.34993991,.00034859,97.5766,258.5647,178.1701,181.9555,0,U,48269,999,28286,.90288791E-3,.30659E-3,0
LEMUR-2-SPECIAL-K,2021-034F,2026-06-28T17:08:50.308224,15.68046550,.00051663,97.5646,267.4342,221.7951,138.2915,0,U,48273,999,28349,.1551861E-2,.175225E-2,0
LEMUR-2-EMBRIONOVIS,2023-084AQ,2026-06-28T21:57:53.092512,15.37838239,.00074567,97.6298,324.5670,271.5441,88.4949,0,U,56970,999,16948,.34106902E-3,.12613E-3,0
LEMUR-2-DEVERILL-M-T,2023-100F,2026-06-28T16:05:13.499232,15.40311349,.00052533,99.4465,221.7481,8.5746,351.5582,0,U,57391,999,16301,.61764114E-3,.24845E-3,0
LEMUR-2-BASS,2023-174D,2026-06-28T18:02:30.305760,15.43474491,.00080846,97.3855,264.6275,127.4266,232.7719,0,U,58259,999,14714,.37889972E-3,.16912E-3,0
LEMUR-2-JK0903EM1407,2023-174CJ,2026-06-28T19:32:21.130080,15.52268155,.00048984,97.3933,270.6153,85.8233,274.3580,0,U,58336,999,14753,.40788795E-3,.24728E-3,0
LEMUR-2-MJR092620,2023-174CN,2026-06-28T19:35:30.738336,15.45295461,.00067197,97.3983,270.0618,82.4961,277.7051,0,U,58340,999,14744,.38823905E-3,.18432E-3,0
LEMUR-2-NIMBUS2000,2024-022A,2026-06-28T12:19:11.342208,15.40449202,.00101663,97.4096,29.6594,81.6912,278.5486,0,U,58899,999,13401,.51521502E-3,.20843E-3,0
LEMUR-2-VALHALLA,2024-022B,2026-06-28T13:51:15.757344,15.40010898,.00106554,97.4095,29.7081,77.4515,282.7922,0,U,58900,999,13402,.38050812E-3,.15142E-3,0
LEMUR-2-CAEL,2024-022E,2026-06-28T13:51:26.121888,15.41335745,.00087966,97.4078,30.6642,63.6341,296.5808,0,U,58903,999,13409,.38094842E-3,.15831E-3,0
LEMUR-2-JOHNNYTRUONG,2024-043BA,2026-06-28T21:10:03.929088,15.61338808,.00047902,97.5375,332.3164,142.0490,218.1105,0,U,59146,999,12986,.44477719E-3,.37826E-3,0
LEMUR-2-TOMATOKECHUP,2024-149D,2026-06-28T23:06:32.699808,15.36270451,.00024386,97.3805,262.0406,153.3337,206.8033,0,U,60471,999,10397,.30547458E-3,.10723E-3,0
LEMUR-2-STELLA,2024-149BT,2026-06-28T19:06:25.997472,15.12045284,.00012114,97.6739,262.3027,100.2116,259.9251,0,U,60533,999,10225,.5971491E-3,.10206E-3,0
LEMUR-2-MARHISYAM,2024-149BW,2026-06-28T04:26:15.576000,15.11467817,.00031163,97.6885,262.1490,97.4793,262.6791,0,U,60536,999,10214,.62528833E-3,.10521E-3,0
LEMUR-2-AHMED-ASRAR,2024-149DN,2026-06-28T11:21:01.635840,15.12957260,.00007585,97.7011,264.5752,2.3479,357.7755,0,U,60576,999,10227,.60907901E-3,.1068E-3,0
LEMUR-2-LLOYD,2024-149DP,2026-06-28T21:49:18.195168,15.09458323,.00049867,97.6753,261.0451,110.7666,249.4098,0,U,60577,999,10216,.64963094E-3,.10345E-3,0
LEMUR-2-SQUIRRELCOMM,2024-149DQ,2026-06-28T22:33:31.344768,15.07280969,.00056151,97.6719,260.8145,28.7287,331.4248,0,U,60578,999,10217,.34112118E-3,.5085E-4,0
LEMUR-2-SIERRINI,2024-149DR,2026-06-28T19:21:30.513888,15.11185763,.00064882,97.6848,262.4509,133.1638,227.0135,0,U,60579,999,10221,.60249537E-3,.10059E-3,0
LEMUR-2-WILSON,2025-009CP,2026-06-28T22:34:03.155520,14.95212646,.00032557,97.7024,258.1986,23.7295,336.4076,0,U,62694,999,7911,.18650504E-3,.1993E-4,0
LEMUR-2-STAR-FOX,2025-009CR,2026-06-28T22:42:59.936256,15.02646474,.00043261,97.6957,261.4710,87.9045,272.2675,0,U,62696,999,7932,.47119503E-3,.6223E-4,0
LEMUR-2-ARIANNA,2025-009CU,2026-06-28T22:40:46.382592,15.02645086,.00046543,97.6898,261.2347,92.5583,267.6175,0,U,62699,999,7932,.51634613E-3,.6826E-4,0
LEMUR-2-ALISIA,2025-009DB,2026-06-28T17:18:10.835136,15.02927663,.0002851,97.6940,261.8108,178.9575,181.1656,0,U,62706,999,10189,.58130211E-3,.775E-4,0
