LEMUR-1                 
1 40044U 14033AL  26179.94879860  .00001820  00000+0  21368-3 0  9992
2 40044  97.7887 329.4931 0049102  40.9576 319.5311 14.85288138647219
LEMUR-2-GREENBERG       
1 42837U 17042N   26179.78253343  .00015664  00000+0  51377-3 0  9995
2 42837  97.3814   0.3563 0007492 329.4772  30.6032 15.31675330490169
LEMUR-2-ANDIS           
1 42838U 17042P   26179.78491867  .00020655  00000+0  60349-3 0  9996
2 42838  97.3671   0.5830 0007368 326.6141  33.4637 15.35299857490231
LEMUR-2-MONSON          
1 42839U 17042Q   26179.75107641  .00014555  00000+0  52946-3 0  9994
2 42839  97.4076   0.2796 0005340 319.9828  40.1018 15.28335892489930
LEMUR-2-FURIAUS         
1 42840U 17042R   26179.45751911  .00016140  00000+0  54696-3 0  9994
2 42840  97.3764 357.9623 0007367  32.5167 327.6527 15.30612679489933
LEMUR-2-PETERG          
1 42841U 17042S   26179.77625595  .00022761  00000+0  68487-3 0  9997
2 42841  97.3984   4.8282 0002695 300.8951  59.2026 15.34375539490218
LEMUR-2-DEMBITZ         
1 42842U 17042T   26179.93479975  .00014639  00000+0  49623-3 0  9991
2 42842  97.3820   1.4692 0005720 345.9516  14.1565 15.30637055490145
LEMUR-2-ZACHARY         
1 42845U 17042W   26179.80505543  .00044696  00000+0  76098-3 0  9993
2 42845  97.3583  11.6960 0002295 335.3165  24.7977 15.51269729491004
LEMUR-2-AMANDA-SVANTE   
1 48269U 21034B   26179.96389754  .00030659  00000+0  90289-3 0  9998
2 48269  97.5766 258.5647 0003485 178.1701 181.9555 15.34993991282866
LEMUR-2-SPECIAL-K       
1 48273U 21034F   26179.71447116  .00175225  00000+0  15519-2 0  9994
2 48273  97.5646 267.4342 0005166 221.7951 138.2915 15.68046550283491
LEMUR-2-EMBRIONOVIS     
1 56970U 23084AQ  26179.91519783  .00012613  00000+0  34107-3 0  9992
2 56970  97.6298 324.5670 0007456 271.5441  88.4949 15.37838239169482
LEMUR-2-DEVERILL-M-T    
1 57391U 23100F   26179.67029513  .00024845  00000+0  61764-3 0  9998
2 57391  99.4465 221.7481 0005253   8.5746 351.5582 15.40311349163015
LEMUR-2-BASS            
1 58259U 23174D   26179.75173965  .00016912  00000+0  37890-3 0  9992
2 58259  97.3855 264.6275 0008084 127.4266 232.7719 15.43474491147148
LEMUR-2-JK0903EM1407    
1 58336U 23174CJ  26179.81413345  .00024728  00000+0  40789-3 0  9999
2 58336  97.3933 270.6153 0004898  85.8233 274.3580 15.52268155147532
LEMUR-2-MJR092620       
1 58340U 23174CN  26179.81632799  .00018432  00000+0  38824-3 0  9992
2 58340  97.3983 270.0618 0006719  82.4961 277.7051 15.45295461147449
LEMUR-2-NIMBUS2000      
1 58899U 24022A   26179.51332572  .00020843  00000+0  51522-3 0  9996
2 58899  97.4096  29.6594 0010166  81.6912 278.5486 15.40449202134012
LEMUR-2-VALHALLA        
1 58900U 24022B   26179.57726571  .00015142  00000+0  38051-3 0  9999
2 58900  97.4095  29.7081 0010655  77.4515 282.7922 15.40010898134029
LEMUR-2-CAEL            
1 58903U 24022E   26179.57738567  .00015831  00000+0  38095-3 0  9993
2 58903  97.4078  30.6642 0008796  63.6341 296.5808 15.41335745134099
LEMUR-2-JOHNNYTRUONG    
1 59146U 24043BA  26179.88198992  .00037826  00000+0  44478-3 0  9992
2 59146  97.5375 332.3164 0004790 142.0490 218.1105 15.61338808129862
LEMUR-2-TOMATOKECHUP    
1 60471U 24149D   26179.96287847  .00010723  00000+0  30547-3 0  9998
2 60471  97.3805 262.0406 0002438 153.3337 206.8033 15.36270451103970
LEMUR-2-STELLA          
1 60533U 24149BT  26179.79613423  .00010206  00000+0  59715-3 0  9995
2 60533  97.6739 262.3027 0001211 100.2116 259.9251 15.12045284102253
LEMUR-2-MARHISYAM       
1 60536U 24149BW  26179.18490250  .00010521  00000+0  62529-3 0  9999
2 60536  97.6885 262.1490 0003116  97.4793 262.6791 15.11467817102141
LEMUR-2-AHMED-ASRAR     
1 60576U 24149DN  26179.47293560  .00010680  00000+0  60908-3 0  9995
2 60576  97.7011 264.5752 0000758   2.3479 357.7755 15.12957260102276
LEMUR-2-LLOYD           
1 60577U 24149DP  26179.90923837  .00010345  00000+0  64963-3 0  9994
2 60577  97.6753 261.0451 0004986 110.7666 249.4098 15.09458323102163
LEMUR-2-SQUIRRELCOMM    
1 60578U 24149DQ  26179.93994612  .00005085  00000+0  34112-3 0  9995
2 60578  97.6719 260.8145 0005615  28.7287 331.4248 15.07280969102177
LEMUR-2-SIERRINI        
1 60579U 24149DR  26179.80660317  .00010059  00000+0  60250-3 0  9993
2 60579  97.6848 262.4509 0006488 133.1638 227.0135 15.11185763102214
LEMUR-2-WILSON          
1 62694U 25009CP  26179.94031430  .00001993  00000+0  18651-3 0  9997
2 62694  97.7024 258.1986 0003255  23.7295 336.4076 14.95212646 79117
LEMUR-2-STAR-FOX        
1 62696U 25009CR  26179.94652704  .00006223  00000+0  47120-3 0  9996
2 62696  97.6957 261.4710 0004326  87.9045 272.2675 15.02646474 79324
LEMUR-2-ARIANNA         
1 62699U 25009CU  26179.94498128  .00006826  00000+0  51635-3 0  9992
2 62699  97.6898 261.2347 0004654  92.5583 267.6175 15.02645086 79329
LEMUR-2-ALISIA          
1 62706U 25009DB  26179.72095874  .00007750  00000+0  58130-3 0  9992
2 62706  97.6940 261.8108 0002851 178.9575 181.1656 15.02927663101890
